[{"OBJECT_NAME":"HELIOS 1B","OBJECT_ID":"1999-064A","EPOCH":"2026-04-03T17:35:59.567712","MEAN_MOTION":14.87802445,"ECCENTRICITY":0.0001529,"INCLINATION":98.167,"RA_OF_ASC_NODE":356.7103,"ARG_OF_PERICENTER":44.4908,"MEAN_ANOMALY":315.643,"EPHEMERIS_TYPE":0,"CLASSIFICATION_TYPE":"U","NORAD_CAT_ID":25977,"ELEMENT_SET_NO":999,"REV_AT_EPOCH":68898,"BSTAR":0.00039074,"MEAN_MOTION_DOT":3.511e-5,"MEAN_MOTION_DDOT":0},{"OBJECT_NAME":"TERRA","OBJECT_ID":"1999-068A","EPOCH":"2026-04-03T20:30:27.012384","MEAN_MOTION":14.61043899,"ECCENTRICITY":0.0003667,"INCLINATION":97.954,"RA_OF_ASC_NODE":146.3212,"ARG_OF_PERICENTER":99.7878,"MEAN_ANOMALY":347.202,"EPHEMERIS_TYPE":0,"CLASSIFICATION_TYPE":"U","NORAD_CAT_ID":25994,"ELEMENT_SET_NO":999,"REV_AT_EPOCH":39875,"BSTAR":0.00017236,"MEAN_MOTION_DOT":8.02e-6,"MEAN_MOTION_DDOT":0},{"OBJECT_NAME":"SL-16 R/B","OBJECT_ID":"2000-006B","EPOCH":"2026-04-03T21:09:42.088896","MEAN_MOTION":14.15830989,"ECCENTRICITY":0.0015264,"INCLINATION":71.0038,"RA_OF_ASC_NODE":44.8632,"ARG_OF_PERICENTER":150.2868,"MEAN_ANOMALY":209.9125,"EPHEMERIS_TYPE":0,"CLASSIFICATION_TYPE":"U","NORAD_CAT_ID":26070,"ELEMENT_SET_NO":999,"REV_AT_EPOCH":35212,"BSTAR":9.2955e-5,"MEAN_MOTION_DOT":1.35e-6,"MEAN_MOTION_DDOT":0},{"OBJECT_NAME":"TITAN 4B R/B","OBJECT_ID":"2000-047B","EPOCH":"2026-04-03T20:56:31.660224","MEAN_MOTION":15.09803869,"ECCENTRICITY":0.0040273,"INCLINATION":67.9902,"RA_OF_ASC_NODE":329.6875,"ARG_OF_PERICENTER":5.8963,"MEAN_ANOMALY":354.2652,"EPHEMERIS_TYPE":0,"CLASSIFICATION_TYPE":"U","NORAD_CAT_ID":26474,"ELEMENT_SET_NO":999,"REV_AT_EPOCH":39671,"BSTAR":0.00040885,"MEAN_MOTION_DOT":6.619e-5,"MEAN_MOTION_DDOT":0},{"OBJECT_NAME":"ENVISAT","OBJECT_ID":"2002-009A","EPOCH":"2026-04-03T20:11:16.548000","MEAN_MOTION":14.3904639,"ECCENTRICITY":0.0001185,"INCLINATION":98.377,"RA_OF_ASC_NODE":46.8462,"ARG_OF_PERICENTER":82.1438,"MEAN_ANOMALY":284.127,"EPHEMERIS_TYPE":0,"CLASSIFICATION_TYPE":"U","NORAD_CAT_ID":27386,"ELEMENT_SET_NO":999,"REV_AT_EPOCH":26279,"BSTAR":8.5271e-5,"MEAN_MOTION_DOT":2.21e-6,"MEAN_MOTION_DDOT":0},{"OBJECT_NAME":"IDEFIX & ARIANE 42P R/B","OBJECT_ID":"2002-021B","EPOCH":"2026-04-03T19:21:41.907456","MEAN_MOTION":14.3104463,"ECCENTRICITY":0.0012849,"INCLINATION":98.5899,"RA_OF_ASC_NODE":32.1172,"ARG_OF_PERICENTER":111.1865,"MEAN_ANOMALY":249.0692,"EPHEMERIS_TYPE":0,"CLASSIFICATION_TYPE":"U","NORAD_CAT_ID":27422,"ELEMENT_SET_NO":999,"REV_AT_EPOCH":24761,"BSTAR":0.00020272,"MEAN_MOTION_DOT":4.91e-6,"MEAN_MOTION_DDOT":0},{"OBJECT_NAME":"AQUA","OBJECT_ID":"2002-022A","EPOCH":"2026-04-03T20:44:44.438208","MEAN_MOTION":14.62039818,"ECCENTRICITY":0.0001368,"INCLINATION":98.4218,"RA_OF_ASC_NODE":61.6962,"ARG_OF_PERICENTER":115.545,"MEAN_ANOMALY":274.4084,"EPHEMERIS_TYPE":0,"CLASSIFICATION_TYPE":"U","NORAD_CAT_ID":27424,"ELEMENT_SET_NO":999,"REV_AT_EPOCH":27241,"BSTAR":0.00036802,"MEAN_MOTION_DOT":1.798e-5,"MEAN_MOTION_DDOT":0},{"OBJECT_NAME":"CZ-4B R/B","OBJECT_ID":"2002-024C","EPOCH":"2026-04-03T18:25:36.006240","MEAN_MOTION":14.1455241,"ECCENTRICITY":0.0049272,"INCLINATION":98.8783,"RA_OF_ASC_NODE":147.0419,"ARG_OF_PERICENTER":312.6056,"MEAN_ANOMALY":155.3358,"EPHEMERIS_TYPE":0,"CLASSIFICATION_TYPE":"U","NORAD_CAT_ID":27432,"ELEMENT_SET_NO":999,"REV_AT_EPOCH":23278,"BSTAR":6.7163e-5,"MEAN_MOTION_DOT":8.6e-7,"MEAN_MOTION_DDOT":0},{"OBJECT_NAME":"MIDORI II (ADEOS-II)","OBJECT_ID":"2002-056A","EPOCH":"2026-04-03T20:45:56.500992","MEAN_MOTION":14.29305855,"ECCENTRICITY":4.23e-5,"INCLINATION":98.7814,"RA_OF_ASC_NODE":52.5239,"ARG_OF_PERICENTER":20.5091,"MEAN_ANOMALY":339.6107,"EPHEMERIS_TYPE":0,"CLASSIFICATION_TYPE":"U","NORAD_CAT_ID":27597,"ELEMENT_SET_NO":999,"REV_AT_EPOCH":21389,"BSTAR":0.00022634,"MEAN_MOTION_DOT":5.31e-6,"MEAN_MOTION_DDOT":0},{"OBJECT_NAME":"H-2A R/B","OBJECT_ID":"2002-056E","EPOCH":"2026-04-03T21:37:14.367936","MEAN_MOTION":14.33779831,"ECCENTRICITY":0.007142,"INCLINATION":98.3248,"RA_OF_ASC_NODE":53.3135,"ARG_OF_PERICENTER":86.5117,"MEAN_ANOMALY":337.7023,"EPHEMERIS_TYPE":0,"CLASSIFICATION_TYPE":"U","NORAD_CAT_ID":27601,"ELEMENT_SET_NO":999,"REV_AT_EPOCH":21772,"BSTAR":0.00020654,"MEAN_MOTION_DOT":5.5e-6,"MEAN_MOTION_DDOT":0},{"OBJECT_NAME":"CZ-4B R/B","OBJECT_ID":"2003-049C","EPOCH":"2026-04-03T16:33:30.561120","MEAN_MOTION":14.550444,"ECCENTRICITY":0.0048639,"INCLINATION":98.6897,"RA_OF_ASC_NODE":89.5798,"ARG_OF_PERICENTER":154.1824,"MEAN_ANOMALY":206.1814,"EPHEMERIS_TYPE":0,"CLASSIFICATION_TYPE":"U","NORAD_CAT_ID":28059,"ELEMENT_SET_NO":999,"REV_AT_EPOCH":19023,"BSTAR":0.00015764,"MEAN_MOTION_DOT":6.39e-6,"MEAN_MOTION_DDOT":0},{"OBJECT_NAME":"CZ-2C R/B","OBJECT_ID":"2004-012C","EPOCH":"2026-04-03T17:18:04.075200","MEAN_MOTION":15.67722362,"ECCENTRICITY":0.0013605,"INCLINATION":97.7165,"RA_OF_ASC_NODE":161.4365,"ARG_OF_PERICENTER":211.2967,"MEAN_ANOMALY":148.7485,"EPHEMERIS_TYPE":0,"CLASSIFICATION_TYPE":"U","NORAD_CAT_ID":28222,"ELEMENT_SET_NO":999,"REV_AT_EPOCH":20819,"BSTAR":0.00073317,"MEAN_MOTION_DOT":0.00081064,"MEAN_MOTION_DDOT":0},{"OBJECT_NAME":"SL-16 R/B","OBJECT_ID":"2004-021B","EPOCH":"2026-04-03T16:50:04.039296","MEAN_MOTION":14.14599312,"ECCENTRICITY":0.0005359,"INCLINATION":71.0012,"RA_OF_ASC_NODE":180.0052,"ARG_OF_PERICENTER":338.4894,"MEAN_ANOMALY":21.6002,"EPHEMERIS_TYPE":0,"CLASSIFICATION_TYPE":"U","NORAD_CAT_ID":28353,"ELEMENT_SET_NO":999,"REV_AT_EPOCH":12637,"BSTAR":0.00023192,"MEAN_MOTION_DOT":3.98e-6,"MEAN_MOTION_DDOT":0},{"OBJECT_NAME":"CZ-4B R/B","OBJECT_ID":"2004-035C","EPOCH":"2026-04-03T15:25:22.659168","MEAN_MOTION":15.29524075,"ECCENTRICITY":0.0030266,"INCLINATION":97.345,"RA_OF_ASC_NODE":127.5878,"ARG_OF_PERICENTER":238.1218,"MEAN_ANOMALY":121.7077,"EPHEMERIS_TYPE":0,"CLASSIFICATION_TYPE":"U","NORAD_CAT_ID":28415,"ELEMENT_SET_NO":999,"REV_AT_EPOCH":18372,"BSTAR":0.00048915,"MEAN_MOTION_DOT":0.00014127,"MEAN_MOTION_DDOT":0},{"OBJECT_NAME":"CZ-2C R/B","OBJECT_ID":"2004-046B","EPOCH":"2026-04-03T17:28:27.198912","MEAN_MOTION":14.27002341,"ECCENTRICITY":0.0140631,"INCLINATION":98.1976,"RA_OF_ASC_NODE":7.1519,"ARG_OF_PERICENTER":80.9095,"MEAN_ANOMALY":280.7969,"EPHEMERIS_TYPE":0,"CLASSIFICATION_TYPE":"U","NORAD_CAT_ID":28480,"ELEMENT_SET_NO":999,"REV_AT_EPOCH":11207,"BSTAR":0.00012423,"MEAN_MOTION_DOT":2.96e-6,"MEAN_MOTION_DDOT":0},{"OBJECT_NAME":"ARIANE 5 R/B","OBJECT_ID":"2004-049H","EPOCH":"2026-04-03T11:47:22.558848","MEAN_MOTION":14.85316331,"ECCENTRICITY":0.00828185,"INCLINATION":98.2662,"RA_OF_ASC_NODE":262.8833,"ARG_OF_PERICENTER":270.7211,"MEAN_ANOMALY":88.4514,"EPHEMERIS_TYPE":0,"CLASSIFICATION_TYPE":"U","NORAD_CAT_ID":28499,"ELEMENT_SET_NO":999,"REV_AT_EPOCH":14947,"BSTAR":0.00017169079,"MEAN_MOTION_DOT":1.503e-5,"MEAN_MOTION_DDOT":0},{"OBJECT_NAME":"CZ-2D R/B","OBJECT_ID":"2005-024B","EPOCH":"2026-04-03T15:23:14.872704","MEAN_MOTION":15.62572775,"ECCENTRICITY":0.0001839,"INCLINATION":97.3567,"RA_OF_ASC_NODE":109.7429,"ARG_OF_PERICENTER":287.6932,"MEAN_ANOMALY":72.4125,"EPHEMERIS_TYPE":0,"CLASSIFICATION_TYPE":"U","NORAD_CAT_ID":28738,"ELEMENT_SET_NO":999,"REV_AT_EPOCH":14367,"BSTAR":0.00073353,"MEAN_MOTION_DOT":0.00065698,"MEAN_MOTION_DDOT":0}]
